ONEWEB-0521             
1 54139U 22138AC  22303.00001157 -.00014009  00000+0 -14907-2 0  9990
2 54139  87.4292 214.5951 0013189 289.2106  25.5577 14.89122207  1944
ONEWEB-0522             
1 54140U 22138AD  22302.91668981  .00022858  00000+0  23794-2 0  9998
2 54140  87.4315 214.6231 0013785 277.9821 325.3880 14.89664872  1301
ONEWEB-0523             
1 54141U 22138AE  22303.00001157 -.00009800  00000+0 -98021-3 0  9996
2 54141  87.4313 214.5877 0008206 284.5435  95.8552 14.91663297  1940
ONEWEB-0524             
1 54142U 22138AF  22303.00001157 -.00010181  00000+0 -10192-2 0  9993
2 54142  87.4283 214.5837 0008183 283.4178  96.0642 14.91626717  1948
ONEWEB-0525             
1 54143U 22138AG  22303.00001157 -.00011984  00000+0 -12363-2 0  9998
2 54143  87.4321 214.5918 0012053 266.9164  80.4087 14.90383553  1941
ONEWEB-0526             
1 54144U 22138AH  22303.00001157 -.00013166  00000+0 -13814-2 0  9995
2 54144  87.4296 214.5941 0013958 278.0816  51.1173 14.89683741  1943
ONEWEB-0529             
1 54145U 22138AJ  22303.00001157 -.00012614  00000+0 -13130-2 0  9994
2 54145  87.4286 214.5919 0013270 272.4399  65.2798 14.90012329  1948
ONEWEB-0531             
1 54146U 22138AK  22303.00001157 -.00010033  00000+0 -10064-2 0  9991
2 54146  87.4321 214.5895 0008247 280.7798  96.6266 14.91548117  1943
ONEWEB-0535             
1 54147U 22138AL  22303.00001157 -.00010673  00000+0 -10813-2 0  9994
2 54147  87.4305 214.5887 0008850 269.0600  97.8096 14.91140624  1944
ONEWEB-0536             
1 54148U 22138AM  22303.00001157 -.00009942  00000+0 -10007-2 0  9997
2 54148  87.4316 214.5892 0008037 276.5401  97.2991 14.91411376  1945
GSLV R/B                
1 54149U 22138AN  22302.95019540  .00001928  00000+0  21034-3 0  9993
2 54149  87.3904 214.6274 0022848 255.8944 103.9743 14.87232204  1071
GONETS-M 23             
1 54150U 22139A   22302.81208862  .00000010  00000+0  00000+0 0  9995
2 54150  82.4993  92.4790 0011779 257.9749 102.0011 12.43421209   879
GONETS-M 24             
1 54151U 22139B   22302.81106285  .00000010  00000+0  00000+0 0  9992
2 54151  82.4926  92.4734 0012211 253.3400 106.6343 12.43605549   879
GONETS-M 25             
1 54152U 22139C   22302.80904944  .00000010  00000+0  00000+0 0  9990
2 54152  82.4966  92.4755 0013377 246.3990 113.5687 12.43968009   878
PROGRESS-MS 21          
1 54155U 22140A   22300.76448862  .00011267  00000+0  20888-3 0  9996
2 54155  51.6441  39.7919 0005932  11.0064 123.6531 15.49468146365746
2022-142A               
1 54214U 22142A   22302.99540971 -.00000139  00000+0  00000+0 0  9992
2 54214  59.9948   0.0111 0032475 156.0838 204.1738 14.35684435   140
2022-142B               
1 54215U 22142B   22302.92697445 -.00000139  00000+0  00000+0 0  9995
2 54215  59.9039   0.1511 0026534 199.0907 160.9149 14.33504552   133
